0 COSMOS 2251 DEB
1 35703U 93036APY 13282.58033115  .00002432  00000-0  45477-3 0  2412
2 35703 074.0518 017.3025 0110908 172.2030 188.1034 14.61540901241853
0 COSMOS 2251 DEB
1 35703U 93036APY 13285.59210350  .00002445  00000-0  45681-3 0  2426
2 35703 074.0522 011.5492 0111097 165.5188 194.9317 14.61556221242291
0 COSMOS 2251 DEB
1 35703U 93036APY 13287.57711715  .00002496  00000-0  46405-3 0  2439
2 35703 074.0559 007.7616 0113879 160.8069 199.7866 14.61567723242585
0 COSMOS 2251 DEB
1 35703U 93036APY 13289.90434920  .00002588  00000-0  47965-3 0  2443
2 35703 074.0535 003.3150 0115219 154.6820 206.0865 14.61582646242920
0 COSMOS 2251 DEB
1 35703U 93036APY 13291.88930274  .00002639  00000-0  49124-3 0  2453
2 35703 074.0517 359.5210 0112117 151.0016 209.7443 14.61594872243214
0 COSMOS 2251 DEB
1 35703U 93036APY 13293.87426367  .00002690  00000-0  50055-3 0  2460
2 35703 074.0508 355.7280 0112075 146.0255 214.8313 14.61606990243501
0 COSMOS 2251 DEB
1 35703U 93036APY 13295.85919919  .00002727  00000-0  50687-3 0  2473
2 35703 074.0544 351.9412 0112437 142.1641 218.7669 14.61619269243795
